STARLINK-11139 [DTC]    
1 60402U 24141E   24245.41605133  .00008880  00000+0  58222-4 0  9990
2 60402  53.1576 298.9425 0001668 117.3727 242.7463 15.76719767  4681
STARLINK-11158 [DTC]    
1 60403U 24141F   24245.58334491  .00019145  00000+0  16265-3 0  9991
2 60403  53.1594 298.1640 0001293  70.5752 133.2760 15.69690524  4679
STARLINK-11199 [DTC]    
1 60404U 24141G   24245.58334491  .00017978  00000+0  15302-3 0  9995
2 60404  53.1594 298.1065 0001609  69.2338 162.3502 15.69694571  4726
STARLINK-11081 [DTC]    
1 60405U 24141H   24245.58334491  .00010971  00000+0  95323-4 0  9994
2 60405  53.1592 298.0497 0001430  71.5964 187.7196 15.69702125  4675
STARLINK-11150 [DTC]    
1 60406U 24141J   24245.58334491  .00062492  00000+0  51748-3 0  9992
2 60406  53.1589 297.9915 0001261  74.2455 212.8157 15.69677594  4726
STARLINK-11136 [DTC]    
1 60407U 24141K   24245.58334491  .00048695  00000+0  40488-3 0  9991
2 60407  53.1572 297.9330 0001267  51.2214 263.5777 15.69683054  4677
STARLINK-11196 [DTC]    
1 60408U 24141L   24245.58334491  .00007308  00000+0  65121-4 0  9990
2 60408  53.1581 297.8769 0001564  52.8593 289.6555 15.69712604  4723
STARLINK-11174 [DTC]    
1 60409U 24141M   24245.58334491 -.00998554  00000+0 -87798-2 0  9997
2 60409  53.1587 297.7643 0000941  66.5567 330.7845 15.70610852  4679
STARLINK-11191 [DTC]    
1 60410U 24141N   24245.58334491 -.01002141  00000+0 -88142-2 0  9992
2 60410  53.1578 297.7069 0000929  67.2120 357.8659 15.70612152  4726
STARLINK-32244          
1 60411U 24141P   24245.58334491 -.01673845  00000+0 -17054-1 0  9991
2 60411  53.1546 297.8948 0000867  68.7213 263.3854 15.67621173  4737
STARLINK-32186          
1 60412U 24141Q   24245.58334491 -.01673949  00000+0 -17055-1 0  9998
2 60412  53.1553 297.8901 0000888  69.3473 264.6761 15.67621280  4676
STARLINK-32178          
1 60413U 24141R   24245.58334491 -.01675051  00000+0 -17067-1 0  9998
2 60413  53.1580 297.8789 0000935  75.9965 263.7764 15.67621907  4683
STARLINK-32234          
1 60414U 24141S   24245.58334491 -.01674114  00000+0 -17056-1 0  9996
2 60414  53.1547 297.8858 0001054  83.5721 252.3670 15.67620867  4732
STARLINK-32265          
1 60415U 24141T   24245.58334491 -.01674144  00000+0 -17057-1 0  9991
2 60415  53.1547 297.8825 0000911  77.2551 260.6011 15.67621390  4732
STARLINK-32197          
1 60416U 24141U   24245.58334491  .00303015  00000+0  21574-2 0  9995
2 60416  53.1546 297.8533 0002870  38.0274 313.9922 15.72411451  4678
STARLINK-32255          
1 60417U 24141V   24245.58334491 -.01673122  00000+0 -17045-1 0  9995
2 60417  53.1584 297.8707 0000966  59.1354 284.4700 15.67621196  4737
STARLINK-32236          
1 60418U 24141W   24245.58334491 -.01675359  00000+0 -17069-1 0  9996
2 60418  53.1580 297.8662 0001152  79.6329 265.8883 15.67621896  4733
CAPELLA-13 (ACADIA-3)   
1 60419U 24142A   24244.15926101  .00039943  00000+0  45399-2 0  9993
2 60419  53.0085  36.2934 0010683 346.2092  13.8594 14.85859152  2914
ELECTRON KICK STAGE R/B 
1 60420U 24142B   24245.57253971  .00010811  00000+0  12599-2 0  9999
2 60420  53.0064  30.1454 0012634 333.9994  26.0349 14.85631816  3094
ASBM A                  
1 60422U 24143A   24226.47652309  .00001141  00000+0  33572-3 0  9999
2 60422  62.3271  72.7173 4781748 267.8387  38.9297  5.93604593   107
ASBM B                  
1 60423U 24143B   24226.13933057  .00001178  00000+0  34422-3 0  9990
2 60423  62.3236  72.9413 4780777 267.8157  38.9560  5.93764773    69
FALCON 9 R/B            
1 60424U 24143C   24245.46475290  .00006474  00000+0  97538-3 0  9999
2 60424  62.3438  59.7770 4776364 268.2478  38.6985  6.00027130  1215
STARLINK-32250          
1 60425U 24144A   24245.58334491 -.00532497  00000+0 -28723-2 0  9991
2 60425  53.1470 275.1774 0000854  70.5305 280.7060 15.80811905  4464
STARLINK-32226          
1 60426U 24144B   24245.58334491 -.00533632  00000+0 -28783-2 0  9990
2 60426  53.1474 275.1738 0000876  79.3532 273.8898 15.80815566  4270
STARLINK-32254          
1 60427U 24144C   24245.58334491 -.00542620  00000+0 -29433-2 0  9991
2 60427  53.1467 275.1486 0000657  58.0291 306.7970 15.80717945  4466
STARLINK-32193          
1 60428U 24144D   24245.58334491 -.00535688  00000+0 -28914-2 0  9991
2 60428  53.1470 275.1682 0000868  80.6298 275.0475 15.80805777  4460
STARLINK-32242          
1 60429U 24144E   24245.58334491 -.00543071  00000+0 -29412-2 0  9991
2 60429  53.1469 275.1555 0000843  77.1740 284.5493 15.80751413  4466
STARLINK-32196          
1 60430U 24144F   24245.58334491 -.00549617  00000+0 -29911-2 0  9999
2 60430  53.1469 275.1411 0000611  64.2678 304.3690 15.80664650  4375
STARLINK-32232          
1 60431U 24144G   24245.58334491 -.00539366  00000+0 -29162-2 0  9998
2 60431  53.1470 275.1619 0000853  76.8049 281.9081 15.80778495  4374
STARLINK-32246          
1 60432U 24144H   24245.58334491 -.00554432  00000+0 -30245-2 0  9994
2 60432  53.1471 275.1346 0000596  75.1277 296.8221 15.80625413  4374
STARLINK-32183          
1 60433U 24144J   24245.58334491 -.00555547  00000+0 -30306-2 0  9991
2 60433  53.1468 275.1301 0000587  71.6295 302.3345 15.80628179  4375
STARLINK-32233          
1 60434U 24144K   24245.58334491 -.00562639  00000+0 -30813-2 0  9995
2 60434  53.1470 275.1174 0000660  59.4063 320.7256 15.80561251  4378
STARLINK-32222          
1 60435U 24144L   24245.58334491 -.00560099  00000+0 -30628-2 0  9998
2 60435  53.1472 275.1236 0000661  65.1239 312.1631 15.80587204  4378
STARLINK-32229          
1 60436U 24144M   24245.58334491 -.00567645  00000+0 -31151-2 0  9995
2 60436  53.1466 275.1106 0000627  66.7235 316.4278 15.80529701  4375
STARLINK-32241          
1 60437U 24144N   24245.58334491 -.00571519  00000+0 -31459-2 0  9992
2 60437  53.1469 275.1036 0000684  56.7361 330.0670 15.80473464  4375
STARLINK-32240          
1 60438U 24144P   24245.58334491 -.00576880  00000+0 -31816-2 0  9996
2 60438  53.1468 275.0976 0000626  65.0469 324.6440 15.80445198  4462
STARLINK-32231          
1 60439U 24144Q   24245.58334491 -.00585291  00000+0 -32419-2 0  9993
2 60439  53.1469 275.0849 0000638  66.8553 328.9258 15.80373283  4468
STARLINK-32195          
1 60440U 24144R   24245.58334491 -.00579204  00000+0 -32014-2 0  9993
2 60440  53.1470 275.0911 0000752  56.4105 336.4676 15.80403102  4379
STARLINK-32177          
1 60441U 24144S   24245.58334491 -.00586037  00000+0 -32497-2 0  9991
2 60441  53.1471 275.0797 0000717  55.2792 343.1435 15.80350262  4379
STARLINK-32252          
1 60442U 24144T   24245.58334491 -.00600650  00000+0 -33543-2 0  9993
2 60442  53.1466 275.0599 0000649  60.4192 347.1471 15.80234837  4463
STARLINK-32237          
1 60443U 24144U   24245.58334491 -.00592576  00000+0 -32958-2 0  9990
2 60443  53.1469 275.0721 0000675  60.3601 341.3888 15.80302267  4288
STARLINK-32249          
1 60444U 24144V   24245.58334491 -.00607106  00000+0 -34025-2 0  9994
2 60444  53.1465 275.0474 0000706  57.7011 355.4560 15.80173293  4468
STARLINK-32228          
1 60445U 24144W   24245.58334491 -.00604880  00000+0 -33863-2 0  9990
2 60445  53.1467 275.0532 0000660  58.6957 351.9753 15.80191782  4462
STARLINK-32247          
1 60446U 24144X   24245.58334491 -.00611951  00000+0 -34372-2 0  9994
2 60446  53.1467 275.0414 0000666  60.7677 355.2844 15.80138144  4462
STARLINK-32101          
1 60447U 24144Y   24245.58334491 -.00597153  00000+0 -33301-2 0  9993
2 60447  53.1467 275.0652 0000803  61.4659 343.5186 15.80255474  4373
PROGRESS-MS 28          
1 60450U 24145A   24245.47785872  .00024017  00000+0  43831-3 0  9991
2 60450  51.6388 297.3906 0011164 307.3013  52.6957 15.49230024470380
LEGION 3                
1 60452U 24146A   24245.54244586  .00041555  00000+0  10733-2 0  9994
2 60452  44.9935 313.6981 0006292  34.1325 325.9965 15.38500918  2619
LEGION 4                
1 60453U 24146B   24245.60070146  .00001497  00000+0  35987-3 0  9991
2 60453  45.0402 321.7219 0005231 238.8560 121.1784 14.57492199  2482
EOS-08                  
1 60454U 24147A   24245.55398661  .00048562  00000+0  15054-2 0  9998
2 60454  37.3797 197.8842 0007808 125.9451 234.2034 15.32439902  2161
2024-147B               
1 60455U 24147B   24245.58739875  .00194391  00000+0  49882-2 0  9996
2 60455  37.3789 197.2184 0014683 144.6170 215.5568 15.37615369  2174
2024-147C               
1 60456U 24147C   24245.53770355  .00071254  00000+0  75603-3 0  9993
2 60456  36.9265 192.0863 0078361  33.6439 326.9263 15.59109245  2550
2024-147D               
1 60457U 24147D   24245.56660039  .00035285  00000+0  91692-3 0  9994
2 60457  37.3668 197.0279 0028877 129.2272 231.1058 15.37634077  2521
YAOGAN-43 01A           
1 60458U 24148A   24245.55016231  .00034954  00000+0  14089-2 0  9990
2 60458  35.0000 313.2510 0004980  49.0050 311.1095 15.23855654  2485
YAOGAN-43 01B           
1 60459U 24148B   24245.54818588  .00030425  00000+0  12225-2 0  9994
2 60459  34.9967 313.2338 0004753  59.0195 301.0987 15.23987285  2421
YAOGAN-43 01C           
1 60460U 24148C   24245.55004959  .00033689  00000+0  14020-2 0  9996
2 60460  35.0040 313.2515 0005627  61.1752 298.9527 15.22785439  2428
YAOGAN-43 01D           
1 60461U 24148D   24245.60943472  .00037554  00000+0  14866-2 0  9998
2 60461  34.9968 312.7849 0007054  68.4863 291.6604 15.24433542  2433
YAOGAN-43 01E           
1 60462U 24148E   24245.47929762  .00043360  00000+0  17136-2 0  9995
2 60462  34.9957 313.6179 0005829  61.9229 298.2075 15.24464988  2411
YAOGAN-43 01F           
1 60463U 24148F   24245.54733486  .00030316  00000+0  12158-2 0  9996
2 60463  34.9993 313.2275 0004766  66.4458 293.6757 15.24051802  2422
